[
    {
        "CCSDS_OMM_VERS": "3.0",
        "COMMENT": "GENERATED VIA SPACE-TRACK.ORG API",
        "CREATION_DATE": "2024-08-10T22:56:16",
        "ORIGINATOR": "18 SPCS",
        "OBJECT_NAME": "FENGYUN 1C DEB",
        "OBJECT_ID": "1999-025GA",
        "CENTER_NAME": "EARTH",
        "REF_FRAME": "TEME",
        "TIME_SYSTEM": "UTC",
        "MEAN_ELEMENT_THEORY": "SGP4",
        "EPOCH": "2024-08-10T21:33:27.014976",
        "MEAN_MOTION": "13.90170906",
        "ECCENTRICITY": "0.02432870",
        "INCLINATION": "98.1561",
        "RA_OF_ASC_NODE": "192.8865",
        "ARG_OF_PERICENTER": "29.4224",
        "MEAN_ANOMALY": "352.0644",
        "EPHEMERIS_TYPE": "0",
        "CLASSIFICATION_TYPE": "U",
        "NORAD_CAT_ID": "29880",
        "ELEMENT_SET_NO": "999",
        "REV_AT_EPOCH": "88771",
        "BSTAR": "0.00708840000000",
        "MEAN_MOTION_DOT": "0.00011107",
        "MEAN_MOTION_DDOT": "0.0000000000000",
        "SEMIMAJOR_AXIS": "7306.169",
        "PERIOD": "103.584",
        "APOAPSIS": "1105.784",
        "PERIAPSIS": "750.284",
        "OBJECT_TYPE": "DEBRIS",
        "RCS_SIZE": "SMALL",
        "COUNTRY_CODE": "PRC",
        "LAUNCH_DATE": "1999-05-10",
        "SITE": "TSC",
        "DECAY_DATE": null,
        "FILE": "4427609",
        "GP_ID": "264738293",
        "TLE_LINE0": "0 FENGYUN 1C DEB",
        "TLE_LINE1": "1 29880U 99025GA  24223.89822934  .00011107  00000-0  70884-2 0  9999",
        "TLE_LINE2": "2 29880  98.1561 192.8865 0243287  29.4224 352.0644 13.90170906887718"
    },
    {
        "CCSDS_OMM_VERS": "3.0",
        "COMMENT": "GENERATED VIA SPACE-TRACK.ORG API",
        "CREATION_DATE": "2024-08-10T22:36:16",
        "ORIGINATOR": "18 SPCS",
        "OBJECT_NAME": "DMSP 5D-2 F12 (USA 106)",
        "OBJECT_ID": "1994-057A",
        "CENTER_NAME": "EARTH",
        "REF_FRAME": "TEME",
        "TIME_SYSTEM": "UTC",
        "MEAN_ELEMENT_THEORY": "SGP4",
        "EPOCH": "2024-08-10T21:33:11.840544",
        "MEAN_MOTION": "14.15884979",
        "ECCENTRICITY": "0.00117780",
        "INCLINATION": "98.7725",
        "RA_OF_ASC_NODE": "277.3403",
        "ARG_OF_PERICENTER": "49.1367",
        "MEAN_ANOMALY": "311.0826",
        "EPHEMERIS_TYPE": "0",
        "CLASSIFICATION_TYPE": "U",
        "NORAD_CAT_ID": "23233",
        "ELEMENT_SET_NO": "999",
        "REV_AT_EPOCH": "54664",
        "BSTAR": "0.00012326000000",
        "MEAN_MOTION_DOT": "0.00000199",
        "MEAN_MOTION_DDOT": "0.0000000000000",
        "SEMIMAJOR_AXIS": "7217.440",
        "PERIOD": "101.703",
        "APOAPSIS": "847.806",
        "PERIAPSIS": "830.804",
        "OBJECT_TYPE": "PAYLOAD",
        "RCS_SIZE": "LARGE",
        "COUNTRY_CODE": "US",
        "LAUNCH_DATE": "1994-08-29",
        "SITE": "AFWTR",
        "DECAY_DATE": null,
        "FILE": "4427380",
        "GP_ID": "264734243",
        "TLE_LINE0": "0 DMSP 5D-2 F12 (USA 106)",
        "TLE_LINE1": "1 23233U 94057A   24223.89805371  .00000199  00000-0  12326-3 0  9998",
        "TLE_LINE2": "2 23233  98.7725 277.3403 0011778  49.1367 311.0826 14.15884979546645"
    },
    {
        "CCSDS_OMM_VERS": "3.0",
        "COMMENT": "GENERATED VIA SPACE-TRACK.ORG API",
        "CREATION_DATE": "2024-08-10T22:36:16",
        "ORIGINATOR": "18 SPCS",
        "OBJECT_NAME": "STARLINK-3764",
        "OBJECT_ID": "2022-041V",
        "CENTER_NAME": "EARTH",
        "REF_FRAME": "TEME",
        "TIME_SYSTEM": "UTC",
        "MEAN_ELEMENT_THEORY": "SGP4",
        "EPOCH": "2024-08-10T21:33:09.112032",
        "MEAN_MOTION": "15.08842541",
        "ECCENTRICITY": "0.00014000",
        "INCLINATION": "53.2167",
        "RA_OF_ASC_NODE": "173.9493",
        "ARG_OF_PERICENTER": "107.0747",
        "MEAN_ANOMALY": "253.0398",
        "EPHEMERIS_TYPE": "0",
        "CLASSIFICATION_TYPE": "U",
        "NORAD_CAT_ID": "52280",
        "ELEMENT_SET_NO": "999",
        "REV_AT_EPOCH": "12866",
        "BSTAR": "0.00006374500000",
        "MEAN_MOTION_DOT": "0.00000727",
        "MEAN_MOTION_DDOT": "0.0000000000000",
        "SEMIMAJOR_AXIS": "6917.873",
        "PERIOD": "95.437",
        "APOAPSIS": "540.706",
        "PERIAPSIS": "538.769",
        "OBJECT_TYPE": "PAYLOAD",
        "RCS_SIZE": "LARGE",
        "COUNTRY_CODE": "US",
        "LAUNCH_DATE": "2022-04-21",
        "SITE": "AFETR",
        "DECAY_DATE": null,
        "FILE": "4427331",
        "GP_ID": "264734732",
        "TLE_LINE0": "0 STARLINK-3764",
        "TLE_LINE1": "1 52280U 22041V   24223.89802213  .00000727  00000-0  63745-4 0  9997",
        "TLE_LINE2": "2 52280  53.2167 173.9493 0001400 107.0747 253.0398 15.08842541128661"
    },
    {
        "CCSDS_OMM_VERS": "3.0",
        "COMMENT": "GENERATED VIA SPACE-TRACK.ORG API",
        "CREATION_DATE": "2024-08-10T22:56:16",
        "ORIGINATOR": "18 SPCS",
        "OBJECT_NAME": "COSMOS 2494 (SKRL 756)",
        "OBJECT_ID": "2013-078B",
        "CENTER_NAME": "EARTH",
        "REF_FRAME": "TEME",
        "TIME_SYSTEM": "UTC",
        "MEAN_ELEMENT_THEORY": "SGP4",
        "EPOCH": "2024-08-10T21:33:07.982784",
        "MEAN_MOTION": "14.96789160",
        "ECCENTRICITY": "0.00178030",
        "INCLINATION": "82.4160",
        "RA_OF_ASC_NODE": "190.5479",
        "ARG_OF_PERICENTER": "336.0275",
        "MEAN_ANOMALY": "24.0116",
        "EPHEMERIS_TYPE": "0",
        "CLASSIFICATION_TYPE": "U",
        "NORAD_CAT_ID": "39491",
        "ELEMENT_SET_NO": "999",
        "REV_AT_EPOCH": "57755",
        "BSTAR": "0.00092489000000",
        "MEAN_MOTION_DOT": "0.00010647",
        "MEAN_MOTION_DDOT": "0.0000000000000",
        "SEMIMAJOR_AXIS": "6954.962",
        "PERIOD": "96.206",
        "APOAPSIS": "589.209",
        "PERIAPSIS": "564.445",
        "OBJECT_TYPE": "PAYLOAD",
        "RCS_SIZE": "MEDIUM",
        "COUNTRY_CODE": "CIS",
        "LAUNCH_DATE": "2013-12-28",
        "SITE": "PKMTR",
        "DECAY_DATE": null,
        "FILE": "4427556",
        "GP_ID": "264739693",
        "TLE_LINE0": "0 COSMOS 2494 (SKRL 756)",
        "TLE_LINE1": "1 39491U 13078B   24223.89800906  .00010647  00000-0  92489-3 0  9991",
        "TLE_LINE2": "2 39491  82.4160 190.5479 0017803 336.0275  24.0116 14.96789160577553"
    },
    {
        "CCSDS_OMM_VERS": "3.0",
        "COMMENT": "GENERATED VIA SPACE-TRACK.ORG API",
        "CREATION_DATE": "2024-08-10T22:56:16",
        "ORIGINATOR": "18 SPCS",
        "OBJECT_NAME": "STARLINK-3909",
        "OBJECT_ID": "2022-049B",
        "CENTER_NAME": "EARTH",
        "REF_FRAME": "TEME",
        "TIME_SYSTEM": "UTC",
        "MEAN_ELEMENT_THEORY": "SGP4",
        "EPOCH": "2024-08-10T21:33:07.632864",
        "MEAN_MOTION": "15.08846949",
        "ECCENTRICITY": "0.00017950",
        "INCLINATION": "53.2164",
        "RA_OF_ASC_NODE": "133.8255",
        "ARG_OF_PERICENTER": "126.5284",
        "MEAN_ANOMALY": "233.5874",
        "EPHEMERIS_TYPE": "0",
        "CLASSIFICATION_TYPE": "U",
        "NORAD_CAT_ID": "52452",
        "ELEMENT_SET_NO": "999",
        "REV_AT_EPOCH": "12534",
        "BSTAR": "0.00014027000000",
        "MEAN_MOTION_DOT": "0.00001945",
        "MEAN_MOTION_DDOT": "0.0000000000000",
        "SEMIMAJOR_AXIS": "6917.859",
        "PERIOD": "95.437",
        "APOAPSIS": "540.966",
        "PERIAPSIS": "538.482",
        "OBJECT_TYPE": "PAYLOAD",
        "RCS_SIZE": "LARGE",
        "COUNTRY_CODE": "US",
        "LAUNCH_DATE": "2022-05-06",
        "SITE": "AFETR",
        "DECAY_DATE": null,
        "FILE": "4427678",
        "GP_ID": "264741097",
        "TLE_LINE0": "0 STARLINK-3909",
        "TLE_LINE1": "1 52452U 22049B   24223.89800501  .00001945  00000-0  14027-3 0  9995",
        "TLE_LINE2": "2 52452  53.2164 133.8255 0001795 126.5284 233.5874 15.08846949125349"
    },
    {
        "CCSDS_OMM_VERS": "3.0",
        "COMMENT": "GENERATED VIA SPACE-TRACK.ORG API",
        "CREATION_DATE": "2024-08-10T22:46:31",
        "ORIGINATOR": "18 SPCS",
        "OBJECT_NAME": "SL-14 DEB",
        "OBJECT_ID": "1986-101L",
        "CENTER_NAME": "EARTH",
        "REF_FRAME": "TEME",
        "TIME_SYSTEM": "UTC",
        "MEAN_ELEMENT_THEORY": "SGP4",
        "EPOCH": "2024-08-10T21:33:06.617664",
        "MEAN_MOTION": "14.08180701",
        "ECCENTRICITY": "0.00150770",
        "INCLINATION": "82.5478",
        "RA_OF_ASC_NODE": "197.6314",
        "ARG_OF_PERICENTER": "2.8776",
        "MEAN_ANOMALY": "357.2481",
        "EPHEMERIS_TYPE": "0",
        "CLASSIFICATION_TYPE": "U",
        "NORAD_CAT_ID": "18680",
        "ELEMENT_SET_NO": "999",
        "REV_AT_EPOCH": "92244",
        "BSTAR": "0.00237080000000",
        "MEAN_MOTION_DOT": "0.00004062",
        "MEAN_MOTION_DDOT": "0.0000000000000",
        "SEMIMAJOR_AXIS": "7243.741",
        "PERIOD": "102.260",
        "APOAPSIS": "876.527",
        "PERIAPSIS": "854.685",
        "OBJECT_TYPE": "DEBRIS",
        "RCS_SIZE": "SMALL",
        "COUNTRY_CODE": "CIS",
        "LAUNCH_DATE": "1986-12-18",
        "SITE": "PKMTR",
        "DECAY_DATE": null,
        "FILE": "4427481",
        "GP_ID": "264736896",
        "TLE_LINE0": "0 SL-14 DEB",
        "TLE_LINE1": "1 18680U 86101L   24223.89799326  .00004062  00000-0  23708-2 0  9999",
        "TLE_LINE2": "2 18680  82.5478 197.6314 0015077   2.8776 357.2481 14.08180701922441"
    }
]